{"type":"Feature","properties":{"state":"Melaka","parlimen":"P.136 Tangga Batu","code_parlimen":"P.136","dun":"N.13 Paya Rumput","code_dun":"N.13"},"geometry":{"type":"Polygon","coordinates":[[[102.189345,2.313152],[102.189709,2.311515],[102.185345,2.311939],[102.184679,2.311394],[102.184618,2.307879],[102.182921,2.307697],[102.182921,2.308727],[102.182315,2.308727],[102.181406,2.307758],[102.181224,2.307758],[102.180982,2.308667],[102.179103,2.308121],[102.177527,2.309212],[102.175224,2.308788],[102.175164,2.308121],[102.17377,2.308121],[102.170436,2.307758],[102.170194,2.306909],[102.168921,2.306364],[102.168917,2.305685],[102.171105,2.295559],[102.171565,2.294187],[102.171212,2.293531],[102.171716,2.292775],[102.172573,2.292926],[102.172977,2.292069],[102.173885,2.291363],[102.179684,2.296658],[102.182055,2.295196],[102.181298,2.29333],[102.182963,2.291413],[102.184778,2.291211],[102.185989,2.291564],[102.186644,2.293683],[102.187098,2.294036],[102.188208,2.295196],[102.187451,2.295902],[102.188409,2.297062],[102.191183,2.297616],[102.19199,2.29454],[102.192142,2.291766],[102.194613,2.292623],[102.196126,2.290152],[102.19663,2.290354],[102.197639,2.2899],[102.197639,2.289396],[102.200614,2.28874],[102.20127,2.289043],[102.20243,2.289144],[102.204094,2.286471],[102.204851,2.284504],[102.204649,2.283798],[102.205053,2.282638],[102.203691,2.282638],[102.202934,2.283545],[102.200867,2.283596],[102.199276,2.282609],[102.201203,2.280501],[102.203251,2.276948],[102.205058,2.272311],[102.205479,2.264121],[102.202287,2.264723],[102.201866,2.264121],[102.201083,2.264422],[102.200962,2.263759],[102.198373,2.264542],[102.198975,2.267132],[102.197831,2.269059],[102.197229,2.269059],[102.195663,2.269481],[102.193977,2.267192],[102.193073,2.268397],[102.190905,2.269541],[102.190604,2.270264],[102.189098,2.271107],[102.188135,2.270866],[102.18675,2.270926],[102.185907,2.270625],[102.184943,2.269842],[102.1841,2.269481],[102.182534,2.267975],[102.180968,2.268035],[102.180788,2.266831],[102.178062,2.263761],[102.180168,2.262859],[102.181492,2.261114],[102.184802,2.258707],[102.185042,2.258165],[102.188111,2.256721],[102.190578,2.254856],[102.193527,2.253532],[102.197859,2.25275],[102.199785,2.251847],[102.201109,2.250824],[102.202132,2.2495],[102.203997,2.248537],[102.206043,2.247815],[102.206009,2.249602],[102.206009,2.253391],[102.212247,2.254966],[102.214579,2.255257],[102.216212,2.255607],[102.221226,2.254499],[102.225657,2.254558],[102.227056,2.254849],[102.228164,2.247036],[102.227931,2.245404],[102.228105,2.244763],[102.230962,2.245054],[102.231895,2.247503],[102.233236,2.24966],[102.234402,2.251176],[102.235102,2.251876],[102.236119,2.253784],[102.236812,2.257284],[102.236674,2.259641],[102.236015,2.261269],[102.23799,2.262378],[102.238344,2.266035],[102.238913,2.267123],[102.239508,2.269452],[102.238913,2.270798],[102.239275,2.273878],[102.239845,2.275121],[102.242008,2.276595],[102.244447,2.278502],[102.248359,2.28047],[102.250538,2.281454],[102.252436,2.283563],[102.254123,2.28539],[102.256583,2.290521],[102.258972,2.292208],[102.26087,2.295301],[102.261221,2.297269],[102.263189,2.299939],[102.261713,2.303454],[102.260378,2.304578],[102.255811,2.306745],[102.255608,2.307492],[102.256422,2.308442],[102.256422,2.309461],[102.255879,2.310683],[102.256355,2.312042],[102.255811,2.3134],[102.255811,2.314962],[102.254657,2.315912],[102.254114,2.317338],[102.254928,2.319444],[102.255879,2.320326],[102.256694,2.322092],[102.257305,2.322975],[102.25683,2.324469],[102.257984,2.329087],[102.257645,2.32963],[102.256694,2.32963],[102.256626,2.330513],[102.254883,2.331068],[102.253596,2.331116],[102.253143,2.331044],[102.250689,2.333165],[102.248425,2.332116],[102.247686,2.331116],[102.246661,2.332045],[102.246137,2.331735],[102.238821,2.337407],[102.238702,2.334833],[102.239274,2.334404],[102.239059,2.331616],[102.237748,2.331568],[102.23701,2.329352],[102.236152,2.329066],[102.236176,2.32828],[102.237391,2.326707],[102.237423,2.326217],[102.236686,2.325929],[102.236686,2.325064],[102.235597,2.32266],[102.236109,2.320834],[102.234731,2.32125],[102.233962,2.320161],[102.23409,2.320097],[102.234827,2.320385],[102.238833,2.319937],[102.238833,2.319552],[102.237776,2.318943],[102.238384,2.31811],[102.239185,2.318078],[102.239538,2.316252],[102.239955,2.314649],[102.239794,2.312374],[102.236654,2.31058],[102.236686,2.310003],[102.237743,2.309651],[102.239762,2.306286],[102.239025,2.30603],[102.239185,2.304748],[102.238577,2.304716],[102.237872,2.304171],[102.23832,2.303402],[102.23711,2.30016],[102.236919,2.299132],[102.237947,2.297533],[102.237338,2.297228],[102.237338,2.2962],[102.236539,2.295134],[102.235739,2.294982],[102.230447,2.297266],[102.230257,2.298789],[102.229153,2.298294],[102.229153,2.300236],[102.228239,2.300007],[102.228163,2.301111],[102.226716,2.303205],[102.224203,2.303967],[102.224127,2.304233],[102.22485,2.305261],[102.22466,2.307393],[102.222871,2.308193],[102.221348,2.310058],[102.218378,2.308916],[102.216893,2.307584],[102.212948,2.312099],[102.212113,2.312297],[102.207978,2.316949],[102.201696,2.315796],[102.20114,2.315399],[102.199867,2.315359],[102.198873,2.314603],[102.198317,2.314921],[102.19458,2.314246],[102.19458,2.313888],[102.195852,2.313411],[102.19458,2.312258],[102.191951,2.312182],[102.191345,2.312546],[102.189345,2.313152]]]}}
