{
  "type": "FeatureCollection",
  "features": [
    {
      "type": "Feature",
      "geometry": {
        "type": "LineString",
        "coordinates": [
          [
            102.1728285812036,
            2.2923838388824453
          ],
          [
            102.1740156231,
            2.292341917
          ]
        ]
      },
      "properties": {
        "id": "S1",
        "name": "Lebuh SPA / Jalan SB 1 → Lebuh SPA",
        "geometry_source": "https://raw.githubusercontent.com/mfaizalzain/mygov/56b62967c5a21e7d35ae074f17a0a263d3587af8/public/traffic_incidents.json",
        "traffic_values": "SIMULASI TRAFIK - no observed traffic used"
      }
    },
    {
      "type": "Feature",
      "geometry": {
        "type": "LineString",
        "coordinates": [
          [
            102.1913158712,
            2.2627276742
          ],
          [
            102.1919354615,
            2.2624433305
          ],
          [
            102.1920279977,
            2.2623977685
          ],
          [
            102.1923968015,
            2.2622207131
          ],
          [
            102.1926609991,
            2.262100024
          ]
        ]
      },
      "properties": {
        "id": "S2",
        "name": "Jalan Rambai Utama 8 → Jalan Rambai Utama 9",
        "geometry_source": "https://raw.githubusercontent.com/mfaizalzain/mygov/56b62967c5a21e7d35ae074f17a0a263d3587af8/public/traffic_incidents.json",
        "traffic_values": "SIMULASI TRAFIK - no observed traffic used"
      }
    },
    {
      "type": "Feature",
      "geometry": {
        "type": "LineString",
        "coordinates": [
          [
            102.2126380918,
            2.2823990179
          ],
          [
            102.2127494035,
            2.2823841937
          ],
          [
            102.212910336,
            2.2823399723
          ],
          [
            102.2131705103,
            2.2822836069
          ],
          [
            102.2134990809,
            2.2822594861
          ],
          [
            102.2137525497,
            2.2822728865
          ],
          [
            102.214065027,
            2.2823064713
          ],
          [
            102.2145625768,
            2.2823681132
          ],
          [
            102.215053421,
            2.2824217985
          ],
          [
            102.2151593683,
            2.2824338589
          ]
        ]
      },
      "properties": {
        "id": "S3",
        "name": "Jalan Bertam Ulu / Jalan Paya Emas Utama → Lebuh AMJ",
        "geometry_source": "https://raw.githubusercontent.com/mfaizalzain/mygov/56b62967c5a21e7d35ae074f17a0a263d3587af8/public/traffic_incidents.json",
        "traffic_values": "SIMULASI TRAFIK - no observed traffic used"
      }
    },
    {
      "type": "Feature",
      "geometry": {
        "type": "LineString",
        "coordinates": [
          [
            102.2139295755,
            2.2863605911
          ],
          [
            102.2139349399,
            2.2863364704
          ],
          [
            102.2139577386,
            2.2862479442
          ],
          [
            102.2139818785,
            2.2861446776
          ],
          [
            102.2140167472,
            2.2860280107
          ],
          [
            102.2140489338,
            2.2859153638
          ],
          [
            102.2140851436,
            2.2857986968
          ],
          [
            102.2141253767,
            2.2856860499
          ],
          [
            102.2141374467,
            2.2856497851
          ],
          [
            102.214193773,
            2.2854888968
          ],
          [
            102.2143305657,
            2.2851187114
          ],
          [
            102.2144485829,
            2.2848062312
          ],
          [
            102.214514297,
            2.2846252423
          ],
          [
            102.21457867,
            2.2844522098
          ],
          [
            102.2146497486,
            2.2842590767
          ],
          [
            102.2147114394,
            2.2840955082
          ],
          [
            102.2147409437,
            2.284011002
          ],
          [
            102.2147986112,
            2.2838486898
          ],
          [
            102.2148549376,
            2.2836904814
          ],
          [
            102.2149219928,
            2.283490648
          ],
          [
            102.2149541793,
            2.2833940814
          ],
          [
            102.2149863658,
            2.2832948347
          ],
          [
            102.2150306223,
            2.2831366262
          ],
          [
            102.2150681732,
            2.2829796741
          ],
          [
            102.2150896309,
            2.2828723871
          ],
          [
            102.2151325462,
            2.2826430727
          ],
          [
            102.2151486394,
            2.2825250654
          ],
          [
            102.2151593683,
            2.2824338589
          ],
          [
            102.2151674149,
            2.2823466725
          ],
          [
            102.2151794849,
            2.2822353654
          ],
          [
            102.2151835082,
            2.2821749798
          ],
          [
            102.2151875315,
            2.2821093178
          ],
          [
            102.215194237,
            2.281870623
          ],
          [
            102.215194237,
            2.2817847766
          ],
          [
            102.2151969192,
            2.2815715426
          ],
          [
            102.2151888726,
            2.2814199504
          ],
          [
            102.215180826,
            2.2812671019
          ],
          [
            102.2151754615,
            2.2811785754
          ],
          [
            102.2151593683,
            2.2809680213
          ],
          [
            102.2151446161,
            2.2807293263
          ],
          [
            102.215143275,
            2.2806970816
          ],
          [
            102.2151218174,
            2.2803900444
          ],
          [
            102.2151017008,
            2.2799823364
          ]
        ]
      },
      "properties": {
        "id": "S4",
        "name": "Jalan PRB 12 → Jalan Tanjung Minyak (M4)",
        "geometry_source": "https://raw.githubusercontent.com/mfaizalzain/mygov/56b62967c5a21e7d35ae074f17a0a263d3587af8/public/traffic_incidents.json",
        "traffic_values": "SIMULASI TRAFIK - no observed traffic used"
      }
    },
    {
      "type": "Feature",
      "geometry": {
        "type": "LineString",
        "coordinates": [
          [
            102.2173493919,
            2.2807708676
          ],
          [
            102.2167539415,
            2.2808003486
          ],
          [
            102.2163891611,
            2.2808003486
          ],
          [
            102.21616922,
            2.2808016886
          ],
          [
            102.2156072972,
            2.2807990085
          ]
        ]
      },
      "properties": {
        "id": "S5",
        "name": "Lebuh AMJ → Lebuh AMJ",
        "geometry_source": "https://raw.githubusercontent.com/mfaizalzain/mygov/56b62967c5a21e7d35ae074f17a0a263d3587af8/public/traffic_incidents.json",
        "traffic_values": "SIMULASI TRAFIK - no observed traffic used"
      }
    },
    {
      "type": "Feature",
      "geometry": {
        "type": "LineString",
        "coordinates": [
          [
            102.2174043772,
            2.2680116003
          ],
          [
            102.217466068,
            2.267742082
          ],
          [
            102.2174888668,
            2.2676441743
          ],
          [
            102.2175974963,
            2.2671720563
          ],
          [
            102.2176082251,
            2.2671224743
          ],
          [
            102.217645776,
            2.2669360391
          ],
          [
            102.2176819859,
            2.2667684485
          ],
          [
            102.2177195368,
            2.2665873736
          ],
          [
            102.2177503822,
            2.2664854456
          ],
          [
            102.2177678166,
            2.2664237193
          ],
          [
            102.2177919564,
            2.2663486762
          ],
          [
            102.217812073,
            2.2662802496
          ],
          [
            102.2178415773,
            2.2662145031
          ],
          [
            102.2178791282,
            2.266108555
          ],
          [
            102.2179421601,
            2.2659423043
          ],
          [
            102.2180346964,
            2.2657170074
          ],
          [
            102.2180668829,
            2.2656418805
          ],
          [
            102.2181755123,
            2.2654299841
          ],
          [
            102.2183283982,
            2.2651362605
          ],
          [
            102.2184169111,
            2.2649592892
          ],
          [
            102.2185148118,
            2.2647634734
          ],
          [
            102.2185899136,
            2.2646225999
          ],
          [
            102.2186516044,
            2.2645166517
          ],
          [
            102.2187119541,
            2.2644174874
          ],
          [
            102.2189976094,
            2.2639748497
          ],
          [
            102.2191692708,
            2.2637482124
          ],
          [
            102.2193570254,
            2.2634773532
          ],
          [
            102.21955685,
            2.2631742488
          ],
          [
            102.219699007,
            2.2629797728
          ],
          [
            102.2197566745,
            2.2629087497
          ],
          [
            102.2198934672,
            2.2627276742
          ],
          [
            102.2200235543,
            2.2625224777
          ],
          [
            102.2202233789,
            2.2622153529
          ],
          [
            102.220275682,
            2.2621429059
          ],
          [
            102.2205251274,
            2.2617955793
          ],
          [
            102.2205854771,
            2.2617124118
          ],
          [
            102.2208362637,
            2.2613624049
          ],
          [
            102.221097779,
            2.2609829166
          ],
          [
            102.2211903153,
            2.2608273021
          ],
          [
            102.2212600527,
            2.2607052728
          ],
          [
            102.2212935803,
            2.2606408661
          ],
          [
            102.2213566122,
            2.2604973958
          ],
          [
            102.2214196441,
            2.2603458852
          ],
          [
            102.2214893816,
            2.2601594492
          ],
          [
            102.221508157,
            2.2601125471
          ],
          [
            102.2215604601,
            2.2599569324
          ],
          [
            102.2215953288,
            2.259853664
          ],
          [
            102.2216409264,
            2.2596887526
          ],
          [
            102.2216985939,
            2.2594392499
          ],
          [
            102.2217079816,
            2.2593709067
          ]
        ]
      },
      "properties": {
        "id": "S6",
        "name": "Jalan TBC 9 → Jalan Krubong (M133)",
        "geometry_source": "https://raw.githubusercontent.com/mfaizalzain/mygov/56b62967c5a21e7d35ae074f17a0a263d3587af8/public/traffic_incidents.json",
        "traffic_values": "SIMULASI TRAFIK - no observed traffic used"
      }
    },
    {
      "type": "Feature",
      "geometry": {
        "type": "LineString",
        "coordinates": [
          [
            102.2226467548,
            2.2545576475
          ],
          [
            102.22265042965807,
            2.2545179666779114
          ]
        ]
      },
      "properties": {
        "id": "S7",
        "name": "Lebuh AMJ / Jalan Datuk Seri Haji Mohd Zain (M128) → Jalan Pulau Gadong (M7) / Jalan Tun Teja",
        "geometry_source": "https://raw.githubusercontent.com/mfaizalzain/mygov/56b62967c5a21e7d35ae074f17a0a263d3587af8/public/traffic_incidents.json",
        "traffic_values": "SIMULASI TRAFIK - no observed traffic used"
      }
    },
    {
      "type": "Feature",
      "geometry": {
        "type": "LineString",
        "coordinates": [
          [
            102.2435357986,
            2.3104293772
          ],
          [
            102.2436404047,
            2.3105058418
          ],
          [
            102.2437155066,
            2.3105366621
          ],
          [
            102.2437637863,
            2.3105420222
          ],
          [
            102.2438201127,
            2.3105420222
          ],
          [
            102.2438764391,
            2.3105528261
          ],
          [
            102.2439300833,
            2.3105729263
          ],
          [
            102.2439837275,
            2.3106037466
          ],
          [
            102.2440346894,
            2.310641267
          ],
          [
            102.2440883336,
            2.3106855712
          ],
          [
            102.2441392956,
            2.3107311317
          ],
          [
            102.2441875754,
            2.310790176
          ],
          [
            102.2442720649,
            2.3108947809
          ],
          [
            102.24436326,
            2.311028866
          ],
          [
            102.2444584785,
            2.311152231
          ],
          [
            102.2445456503,
            2.3112648759
          ],
          [
            102.2446113644,
            2.3113507205
          ],
          [
            102.2446676908,
            2.311424505
          ],
          [
            102.2447293816,
            2.3114996295
          ],
          [
            102.2447722969,
            2.3115291098
          ],
          [
            102.2448232589,
            2.3115572501
          ],
          [
            102.2448876319,
            2.3115854741
          ],
          [
            102.2449815092,
            2.3116323746
          ],
          [
            102.2455487964,
            2.3118255039
          ],
          [
            102.2462247131,
            2.3120829539
          ],
          [
            102.2463816223,
            2.3121607584
          ]
        ]
      },
      "properties": {
        "id": "S8",
        "name": "Jalan Kampung Cheng-Kampung Beringin (M133) / Jalan Satu Krubong → Jalan Kampung Cheng-Kampung Beringin (M133)",
        "geometry_source": "https://raw.githubusercontent.com/mfaizalzain/mygov/56b62967c5a21e7d35ae074f17a0a263d3587af8/public/traffic_incidents.json",
        "traffic_values": "SIMULASI TRAFIK - no observed traffic used"
      }
    },
    {
      "type": "Feature",
      "geometry": {
        "type": "LineString",
        "coordinates": [
          [
            102.251099628,
            2.3066274166
          ],
          [
            102.2513276158,
            2.3067883025
          ],
          [
            102.2513571201,
            2.3068043827
          ],
          [
            102.2513758955,
            2.3068070628
          ],
          [
            102.251408082,
            2.3067909825
          ],
          [
            102.2514563618,
            2.306750782
          ],
          [
            102.2518372355,
            2.3062035522
          ],
          [
            102.2519378183,
            2.3060198859
          ],
          [
            102.252344173,
            2.3054605956
          ],
          [
            102.252421957,
            2.3053238299
          ],
          [
            102.2524621902,
            2.305243345
          ],
          [
            102.2524863301,
            2.3051762603
          ],
          [
            102.2525104699,
            2.3050528947
          ],
          [
            102.252639216,
            2.3044386632
          ],
          [
            102.2526740847,
            2.3042750971
          ],
          [
            102.2526848135,
            2.304189252
          ],
          [
            102.2526794491,
            2.3040980469
          ],
          [
            102.2526177583,
            2.3037802108
          ]
        ]
      },
      "properties": {
        "id": "S9",
        "name": "Jalan Satu Krubong → Jalan Satu Krubong",
        "geometry_source": "https://raw.githubusercontent.com/mfaizalzain/mygov/56b62967c5a21e7d35ae074f17a0a263d3587af8/public/traffic_incidents.json",
        "traffic_values": "SIMULASI TRAFIK - no observed traffic used"
      }
    }
  ]
}
